NORAD_CAT_ID,OBJECT_NAME,OBJECT_TYPE,EPOCH,MEAN_MOTION,ECCENTRICITY,INCLINATION,RA_OF_ASC_NODE,ARG_OF_PERICENTER,MEAN_ANOMALY,BSTAR,MEAN_MOTION_DOT,MEAN_MOTION_DDOT,TLE_LINE0,TLE_LINE1,TLE_LINE2,SEMIMAJOR_AXIS,PERIOD,APOGEE,PERIGEE,DECAYED
52698.0,STARLINK-4030,PAYLOAD,2023-03-13 19:48:27,15.08841004,0.0001986,53.2194,10.6816,62.4315,297.6879,0.0013068,0.00020572,0.0,0 STARLINK-4030,1 52698U 22053AU  23072.82531658  .00020572  00000-0  13068-2 0  9990,2 52698  53.2194  10.6816 0001986  62.4315 297.6879 15.08841004 45843,6917.877,95.437,541.116,538.368,0.0
52698.0,STARLINK-4030,PAYLOAD,2023-03-14 02:09:59,15.0883329,0.0001145,53.2176,9.4879,61.4584,298.6523,0.00065582,0.00010163,0.0,0 STARLINK-4030,1 52698U 22053AU  23073.09027717  .00010163  00000-0  65582-3 0  9990,2 52698  53.2176   9.4879 0001145  61.4584 298.6523 15.08833290 45881,6917.901,95.438,540.558,538.974,0.0
52698.0,STARLINK-4030,PAYLOAD,2023-03-14 13:17:41,15.08844163,0.000107,53.2179,7.4095,84.5414,275.57,0.0006292,9.741e-05,0.0,0 STARLINK-4030,1 52698U 22053AU  23073.55395556  .00009741  00000-0  62920-3 0  9993,2 52698  53.2179   7.4095 0001070  84.5414 275.5700 15.08844163 46352,6917.868,95.437,540.473,538.992,0.0
52698.0,STARLINK-4030,PAYLOAD,2023-03-15 02:00:45,15.0888999,0.0001318,53.2185,5.0294,70.6222,289.4912,0.001843,0.00029205,0.0,0 STARLINK-4030,1 52698U 22053AU  23074.08386263  .00029205  00000-0  18430-2 0  9990,2 52698  53.2185   5.0294 0001318  70.6222 289.4912 15.08889990 46033,6917.728,95.434,540.504,538.681,0.0
52698.0,STARLINK-4030,PAYLOAD,2023-03-15 05:11:31,15.08899969,0.0001245,53.2183,4.434,75.2992,284.8138,0.001732,0.0002743,0.0,0 STARLINK-4030,1 52698U 22053AU  23074.21633631  .00027430  00000-0  17320-2 0  9994,2 52698  53.2183   4.4340 0001245  75.2992 284.8138 15.08899969 46452,6917.697,95.434,540.423,538.701,0.0
52698.0,STARLINK-4030,PAYLOAD,2023-03-15 22:40:46,15.08844068,0.0001618,53.218,1.1641,140.46,219.651,0.001269,0.00019968,0.0,0 STARLINK-4030,1 52698U 22053AU  23074.94498266  .00019968  00000-0  12690-2 0  9999,2 52698  53.2180   1.1641 0001618 140.4600 219.6510 15.08844068 46564,6917.868,95.437,540.852,538.614,0.0
52698.0,STARLINK-4030,PAYLOAD,2023-03-16 03:26:55,15.08857486,6.14e-05,53.2179,0.2716,94.5436,265.5627,0.002574,0.00040935,0.0,0 STARLINK-4030,1 52698U 22053AU  23075.14370341  .00040935  00000-0  25740-2 0  9993,2 52698  53.2179   0.2716 0000614  94.5436 265.5627 15.08857486 46192,6917.827,95.436,540.117,539.267,0.0
52698.0,STARLINK-4030,PAYLOAD,2023-03-16 05:02:19,15.08863335,5.73e-05,53.2183,359.9745,95.9544,264.1514,0.0026266,0.00041789,0.0,0 STARLINK-4030,1 52698U 22053AU  23075.20994247  .00041789  00000-0  26266-2 0  9999,2 52698  53.2183 359.9745 0000573  95.9544 264.1514 15.08863335 46608,6917.809,95.436,540.07,539.278,0.0
52698.0,STARLINK-4030,PAYLOAD,2023-03-16 19:20:47,15.08840188,0.0001293,53.2165,357.2961,117.5073,242.6051,0.0012175,0.00019142,0.0,0 STARLINK-4030,1 52698U 22053AU  23075.80611081  .00019142  00000-0  12175-2 0  9999,2 52698  53.2165 357.2961 0001293 117.5073 242.6051 15.08840188 46290,6917.88,95.438,540.639,538.85,0.0
52698.0,STARLINK-4030,PAYLOAD,2023-03-17 01:42:21,15.08823944,8.03e-05,53.218,356.1087,70.1227,289.9852,0.0013094,0.00020603,0.0,0 STARLINK-4030,1 52698U 22053AU  23076.07107763  .00020603  00000-0  13094-2 0  9991,2 52698  53.2180 356.1087 0000803  70.1227 289.9852 15.08823944 46334,6917.929,95.439,540.35,539.239,0.0
52698.0,STARLINK-4030,PAYLOAD,2023-03-17 11:14:39,15.08839652,6.79e-05,53.2181,354.3268,71.1821,288.9245,0.00078082,0.00012161,0.0,0 STARLINK-4030,1 52698U 22053AU  23076.46851631  .00012161  00000-0  78082-3 0  9993,2 52698  53.2181 354.3268 0000679  71.1821 288.9245 15.08839652 46796,6917.881,95.438,540.216,539.277,0.0
52698.0,STARLINK-4030,PAYLOAD,2023-03-18 11:05:26,15.08851412,6.28e-05,53.2174,349.8695,85.7167,274.3896,0.0003942,5.993e-05,0.0,0 STARLINK-4030,1 52698U 22053AU  23077.46211208  .00005993  00000-0  39420-3 0  9992,2 52698  53.2174 349.8695 0000628  85.7167 274.3896 15.08851412 46541,6917.846,95.437,540.145,539.276,0.0
52698.0,STARLINK-4030,PAYLOAD,2023-03-18 17:26:59,15.08846674,0.0001405,53.2179,348.6776,76.8409,283.274,0.00024552,3.622e-05,0.0,0 STARLINK-4030,1 52698U 22053AU  23077.72707474  .00003622  00000-0  24552-3 0  9993,2 52698  53.2179 348.6776 0001405  76.8409 283.2740 15.08846674 46582,6917.86,95.437,540.697,538.753,0.0
52698.0,STARLINK-4030,PAYLOAD,2023-03-18 22:13:08,15.08840138,8.2e-05,53.2183,347.7884,89.5659,270.5427,-8.5484e-05,-1.648e-05,0.0,0 STARLINK-4030,1 52698U 22053AU  23077.92579354 -.00001648  00000-0 -85484-4 0  9999,2 52698  53.2183 347.7884 0000820  89.5659 270.5427 15.08840138 47014,6917.88,95.438,540.312,539.178,0.0
52698.0,STARLINK-4030,PAYLOAD,2023-03-19 10:56:13,15.08849138,0.0001021,53.2176,345.4062,81.7925,278.3183,0.00025249,3.734e-05,0.0,0 STARLINK-4030,1 52698U 22053AU  23078.45571154  .00003734  00000-0  25249-3 0  9996,2 52698  53.2176 345.4062 0001021  81.7925 278.3183 15.08849138 47095,6917.852,95.437,540.424,539.011,0.0
52698.0,STARLINK-4030,PAYLOAD,2023-03-20 02:50:04,15.08859232,9.61e-05,53.2172,342.4326,83.2884,276.8217,0.00032308,4.86e-05,0.0,0 STARLINK-4030,1 52698U 22053AU  23079.11810523  .00004860  00000-0  32308-3 0  9991,2 52698  53.2172 342.4326 0000961  83.2884 276.8217 15.08859232 46797,6917.822,95.436,540.351,539.022,0.0
52698.0,STARLINK-4030,PAYLOAD,2023-03-21 02:40:52,15.08844134,0.0001234,53.2172,337.9716,80.1958,279.9173,0.00045131,6.903e-05,0.0,0 STARLINK-4030,1 52698U 22053AU  23080.11171378  .00006903  00000-0  45131-3 0  9999,2 52698  53.2172 337.9716 0001234  80.1958 279.9173 15.08844134 46948,6917.868,95.437,540.586,538.879,0.0
52698.0,STARLINK-4030,PAYLOAD,2023-03-21 20:10:06,15.08840535,0.0001463,53.2172,334.6995,78.1875,281.9281,0.00034458,5.2e-05,0.0,0 STARLINK-4030,1 52698U 22053AU  23080.84035690  .00005200  00000-0  34458-3 0  9994,2 52698  53.2172 334.6995 0001463  78.1875 281.9281 15.08840535 47057,6917.879,95.438,540.756,538.732,0.0
52698.0,STARLINK-4030,PAYLOAD,2023-03-21 21:45:29,15.0884473,0.0001385,53.2172,334.4052,67.8581,292.2558,0.0003346,5.042e-05,0.0,0 STARLINK-4030,1 52698U 22053AU  23080.90659625  .00005042  00000-0  33460-3 0  9997,2 52698  53.2172 334.4052 0001385  67.8581 292.2558 15.08844730 47469,6917.866,95.437,540.689,538.773,0.0
52698.0,STARLINK-4030,PAYLOAD,2023-03-22 02:31:39,15.08855515,0.0001394,53.2173,333.5113,77.6392,282.4756,0.0014415,0.00022738,0.0,0 STARLINK-4030,1 52698U 22053AU  23081.10531529  .00022738  00000-0  14415-2 0  9991,2 52698  53.2173 333.5113 0001394  77.6392 282.4756 15.08855515 47090,6917.833,95.437,540.662,538.734,0.0
52698.0,STARLINK-4030,PAYLOAD,2023-03-22 20:00:53,15.08847668,0.000126,53.2174,330.2413,89.1699,270.9437,0.00065409,0.00010139,0.0,0 STARLINK-4030,1 52698U 22053AU  23081.83395358  .00010139  00000-0  65409-3 0  9991,2 52698  53.2174 330.2413 0001260  89.1699 270.9437 15.08847668 47209,6917.857,95.437,540.594,538.85,0.0
52698.0,STARLINK-4030,PAYLOAD,2023-03-22 21:36:16,15.0884842,0.000137,53.2185,329.9447,93.9791,266.1358,0.00065609,0.00010171,0.0,0 STARLINK-4030,1 52698U 22053AU  23081.90019326  .00010171  00000-0  65609-3 0  9995,2 52698  53.2185 329.9447 0001370  93.9791 266.1358 15.08848420 47612,6917.855,95.437,540.667,538.772,0.0
52698.0,STARLINK-4030,PAYLOAD,2023-03-23 02:22:25,15.0885685,0.0001362,53.2167,329.0498,79.235,280.8796,0.00089027,0.00013916,0.0,0 STARLINK-4030,1 52698U 22053AU  23082.09891148  .00013916  00000-0  89027-3 0  9996,2 52698  53.2167 329.0498 0001362  79.2350 280.8796 15.08856850 47646,6917.829,95.436,540.636,538.752,0.0
52698.0,STARLINK-4030,PAYLOAD,2023-03-23 21:27:06,15.08685341,0.0003273,53.2167,325.4816,135.8184,224.307,-0.0057938,-0.00090961,0.0,0 STARLINK-4030,1 52698U 22053AU  23082.89382055 -.00090961  00000-0 -57938-2 0  9998,2 52698  53.2167 325.4816 0003273 135.8184 224.3070 15.08685341 47763,6918.353,95.447,542.483,537.954,0.0
52698.0,STARLINK-4030,PAYLOAD,2023-03-24 02:13:13,15.08852404,0.0001313,53.2159,324.5878,99.571,260.543,0.00094649,0.00014813,0.0,0 STARLINK-4030,1 52698U 22053AU  23083.09251416  .00014813  00000-0  94649-3 0  9998,2 52698  53.2159 324.5878 0001313  99.5710 260.5430 15.08852404 47393,6917.842,95.437,540.616,538.799,0.0
52698.0,STARLINK-4030,PAYLOAD,2023-03-24 22:53:12,15.08897913,0.0001317,53.2158,320.7248,91.0782,269.0361,0.0018965,0.00030072,0.0,0 STARLINK-4030,1 52698U 22053AU  23083.95361675  .00030072  00000-0  18965-2 0  9993,2 52698  53.2158 320.7248 0001317  91.0782 269.0361 15.08897913 47921,6917.703,95.434,540.479,538.657,0.0
52698.0,STARLINK-4030,PAYLOAD,2023-03-25 19:33:14,15.08819917,0.0001015,53.2151,316.8593,68.3927,291.7173,-0.00018832,-3.282e-05,0.0,0 STARLINK-4030,1 52698U 22053AU  23084.81475481 -.00003282  00000-0 -18832-3 0  9999,2 52698  53.2151 316.8593 0001015  68.3927 291.7173 15.08819917 47657,6917.942,95.439,540.509,539.105,0.0
52698.0,STARLINK-4030,PAYLOAD,2023-03-25 21:08:37,15.08800265,0.000157,53.2155,316.562,127.062,233.0515,-0.0010709,-0.00017272,0.0,0 STARLINK-4030,1 52698U 22053AU  23084.88099307 -.00017272  00000-0 -10709-2 0  9993,2 52698  53.2155 316.5620 0001570 127.0620 233.0515 15.08800265 48069,6918.002,95.44,540.953,538.781,0.0
52698.0,STARLINK-4030,PAYLOAD,2023-03-26 00:19:24,15.08792503,0.0001294,53.2157,315.9673,115.589,244.5236,-0.00064323,-0.00010497,0.0,0 STARLINK-4030,1 52698U 22053AU  23085.01348031 -.00010497  00000-0 -64323-3 0  9994,2 52698  53.2157 315.9673 0001294 115.5890 244.5236 15.08792503 47685,6918.026,95.441,540.786,538.995,0.0
52698.0,STARLINK-4030,PAYLOAD,2023-03-26 19:24:04,15.08808929,9.33e-05,53.2152,312.3986,116.4041,243.7047,0.0010013,0.0001567,0.0,0 STARLINK-4030,1 52698U 22053AU  23085.80838514  .00015670  00000-0  10013-2 0  9993,2 52698  53.2152 312.3986 0000933 116.4041 243.7047 15.08808929 47800,6917.975,95.44,540.486,539.195,0.0
